[{"OBJECT_NAME":"STARLINK-2100","OBJECT_ID":"2021-005AH","EPOCH":"2026-03-09T22:00:01.999584","MEAN_MOTION":15.12103699,"ECCENTRICITY":0.00010124,"INCLINATION":53.0532,"RA_OF_ASC_NODE":30.5302,"ARG_OF_PERICENTER":95.6888,"MEAN_ANOMALY":202.9615,"EPHEMERIS_TYPE":0,"CLASSIFICATION_TYPE":"U","NORAD_CAT_ID":47380,"ELEMENT_SET_NO":999,"REV_AT_EPOCH":577,"BSTAR":0.078295115,"MEAN_MOTION_DOT":0.014974,"MEAN_MOTION_DDOT":0},{"OBJECT_NAME":"OBJECT E","OBJECT_ID":"2026-027E","EPOCH":"2026-03-09T23:02:51.074304","MEAN_MOTION":15.18126455,"ECCENTRICITY":0.00095432,"INCLINATION":97.4916,"RA_OF_ASC_NODE":197.9906,"ARG_OF_PERICENTER":204.0559,"MEAN_ANOMALY":156.0231,"EPHEMERIS_TYPE":0,"CLASSIFICATION_TYPE":"U","NORAD_CAT_ID":67750,"ELEMENT_SET_NO":999,"REV_AT_EPOCH":390,"BSTAR":0.00052617812,"MEAN_MOTION_DOT":0.00010689,"MEAN_MOTION_DDOT":0}]
